OBJECT_NAME,OBJECT_ID,EPOCH,MEAN_MOTION,ECCENTRICITY,INCLINATION,RA_OF_ASC_NODE,ARG_OF_PERICENTER,MEAN_ANOMALY,EPHEMERIS_TYPE,CLASSIFICATION_TYPE,NORAD_CAT_ID,ELEMENT_SET_NO,REV_AT_EPOCH,BSTAR,MEAN_MOTION_DOT,MEAN_MOTION_DDOT
BIRKELAND,2023-001G,2026-06-25T06:25:51.342240,15.40207636,.00082092,97.3348,244.2585,82.3971,277.8208,0,U,55015,999,19359,.2830841E-3,.11304E-3,0
ION SCV-008,2023-001AU,2026-06-25T06:56:59.936640,15.28660677,.00142222,97.5711,272.7433,349.8834,10.2117,0,U,55051,999,19257,.25285235E-3,.6989E-4,0
ION SCV-007,2023-001BD,2026-06-25T06:09:36.885024,14.77559818,.00112548,97.9004,239.1116,314.4800,45.5490,0,U,55060,999,18744,.63821435E-4,.405E-5,0
HUYGENS,2023-001CN,2026-06-25T06:25:57.976032,15.40207275,.00106388,97.3252,243.4780,61.5639,298.6678,0,U,55093,999,19361,.28978084E-3,.11582E-3,0
SHARJAHSAT-1,2023-001CZ,2026-06-25T06:02:00.788928,15.49360789,.00065697,97.3177,245.1296,80.4624,279.7369,0,U,55104,999,19374,.4462834E-3,.24422E-3,0
HORUS 1,2023-025A,2026-06-25T07:09:38.087136,15.23338788,.00019778,97.3465,250.7224,141.0417,219.0963,0,U,55690,999,18528,.28221685E-3,.6635E-4,0
HORUS 2,2023-032A,2026-06-25T06:25:05.254752,15.23503528,.00023108,97.3536,251.5066,98.0932,262.0568,0,U,55844,999,18271,.27422932E-3,.6476E-4,0
GLOBAL-19,2023-041B,2026-06-25T05:10:13.780128,15.38183171,.00075237,41.9997,155.0635,64.2914,295.8701,0,U,55982,999,18316,.38207858E-3,.14468E-3,0
BRO-9,2023-054H,2026-06-24T09:05:50.930016,16.37917889,.00135924,97.2846,94.7711,210.9283,149.1217,0,U,56185,999,18025,.71880616E-3,.7230581E-1,.247412E-5
ION SCV-010,2023-054Q,2026-06-25T05:22:56.227296,15.26257791,.00130756,97.3779,65.6231,168.4416,191.7125,0,U,56192,999,17742,.19701118E-3,.5043E-4,0
TELEOS-2,2023-057C,2026-06-24T22:54:06.177888,14.96398298,.00002182,9.9868,147.6312,273.9451,86.0738,0,U,56310,999,17396,-.26894E-6,.684E-5,0
SNIPE 4,2023-072B,2026-06-25T07:45:09.734976,15.42630502,.00038097,97.5249,22.5878,299.5275,60.5592,0,U,56744,999,17136,.55754238E-3,.2423E-3,0
SNIPE 2,2023-072C,2026-06-25T06:39:19.526112,15.47229527,.000333,97.5243,25.6411,341.7088,18.4042,0,U,56745,999,17149,.65715246E-3,.33447E-3,0
2023-072G,2023-072G,2026-06-25T07:44:47.373792,15.51000032,.0001913,97.4900,24.5011,333.4138,26.7015,0,U,56749,999,17172,.64113929E-3,.37246E-3,0
GEISAT PRECURSOR,2023-084C,2026-06-25T07:17:32.241696,15.34751621,.00043224,97.6226,317.5249,323.9607,36.1344,0,U,56934,999,16877,.24231717E-3,.8081E-4,0
BLACKJACK ACES-3,2023-084U,2026-06-24T22:42:04.693824,15.18536157,.00019202,97.6215,311.1960,17.2769,342.8530,0,U,56950,999,16834,.25014567E-3,.5095E-4,0
BLACKJACK ACES-2,2023-084Z,2026-06-25T06:45:09.282816,15.18567775,.00007108,97.6211,311.6187,103.7186,256.4127,0,U,56955,999,16840,.34822273E-3,.7128E-4,0
BLACKJACK ACES-1,2023-084AA,2026-06-25T06:27:43.106688,15.18543794,.00011253,97.6199,311.3795,125.5504,234.5835,0,U,56956,999,11812,.37285877E-3,.7633E-4,0
ION SCV-011,2023-084AB,2026-06-25T05:56:14.225568,15.28916861,.00074239,98.1380,4.2741,19.9156,340.2370,0,U,56957,999,16704,.20593426E-3,.5701E-4,0
GHOST-3,2023-084AC,2026-06-24T23:38:40.151616,15.48111022,.0005745,97.6216,324.9766,261.7962,98.2636,0,U,56958,999,16922,.3569391E-3,.18657E-3,0
TOMORROW-R2,2023-084AG,2026-06-25T02:28:36.873984,16.23393980,.00106263,97.6024,341.6101,251.5043,108.5092,0,U,56962,999,17033,.86188448E-3,.2137942E-1,.257773E-5
AFR-1,2023-084AJ,2026-06-25T06:49:09.778944,15.28616285,.00093034,97.6278,313.1704,316.0152,44.0346,0,U,56964,999,16846,.17924435E-3,.4915E-4,0
METEOR-M2 3,2023-091A,2026-06-25T07:39:35.316000,14.24047374,.00047493,98.6079,231.1311,135.4529,224.7033,0,U,57166,999,15567,.14586266E-4,-.1E-6,0
UMKA 1 (RS40S),2023-091G,2026-06-25T06:03:29.591712,15.20902926,.00143292,97.5051,234.9186,92.7767,267.5108,0,U,57172,999,16523,.33949384E-3,.7458E-4,0
2023-091H,2023-091H,2026-06-25T07:11:24.749664,15.28798666,.00111893,97.5051,239.5574,88.5835,271.6686,0,U,57173,999,16554,.52259946E-3,.1459E-3,0
2023-091J,2023-091J,2026-06-25T06:02:44.154816,15.13978383,.00147762,97.5054,229.2333,117.7276,242.5457,0,U,57174,999,16485,.22148383E-3,.3962E-4,0
CUBEBEL 2 (EU11S),2023-091K,2026-06-25T07:08:38.336352,15.29340344,.00111795,97.5054,239.5873,90.0628,270.1893,0,U,57175,999,16554,.58154249E-3,.16521E-3,0
SITRO-AIS 5 (KATYS),2023-091L,2026-06-25T05:56:38.402016,15.29625984,.00125373,97.5062,240.2238,78.5151,281.7497,0,U,57176,999,16557,.54259918E-3,.15551E-3,0
ZORKIY-2M 1,2023-091M,2026-06-25T05:43:12.295200,15.21000734,.00148146,97.5093,235.1780,90.2799,270.0134,0,U,57177,999,16522,.40856686E-3,.9019E-4,0
CUBESX-HSE 3 (RS42S),2023-091N,2026-06-25T06:38:30.818112,15.31401475,.00116469,97.5093,241.9664,69.5906,290.6585,0,U,57178,999,16566,.55036054E-3,.16663E-3,0
