[{"id":"55015","name":"BIRKELAND","tle1":"1 55015U 23001G   26176.26795535  .00011304  00000+0  28308-3 0  9998","tle2":"2 55015  97.3348 244.2585 0008209  82.3971 277.8208 15.40207636193596"},{"id":"55051","name":"ION SCV-008","tle1":"1 55051U 23001AU  26176.28958260  .00006989  00000+0  25285-3 0  9990","tle2":"2 55051  97.5711 272.7433 0014222 349.8834  10.2117 15.28660677192570"},{"id":"55060","name":"ION SCV-007","tle1":"1 55060U 23001BD  26176.25667691  .00000405  00000+0  63821-4 0  9998","tle2":"2 55060  97.9004 239.1116 0011254 314.4800  45.5490 14.77559818187449"},{"id":"55093","name":"HUYGENS","tle1":"1 55093U 23001CN  26176.26803213  .00011582  00000+0  28978-3 0  9998","tle2":"2 55093  97.3252 243.4780 0010638  61.5639 298.6678 15.40207275193617"},{"id":"55104","name":"SHARJAHSAT-1","tle1":"1 55104U 23001CZ  26176.25139802  .00024422  00000+0  44628-3 0  9993","tle2":"2 55104  97.3177 245.1296 0006569  80.4624 279.7369 15.49360789193749"},{"id":"55690","name":"HORUS 1","tle1":"1 55690U 23025A   26176.29835749  .00006635  00000+0  28222-3 0  9994","tle2":"2 55690  97.3465 250.7224 0001977 141.0417 219.0963 15.23338788185287"},{"id":"55844","name":"HORUS 2","tle1":"1 55844U 23032A   26176.26742193  .00006476  00000+0  27423-3 0  9995","tle2":"2 55844  97.3536 251.5066 0002310  98.0932 262.0568 15.23503528182715"},{"id":"55982","name":"GLOBAL-19","tle1":"1 55982U 23041B   26176.21543727  .00014468  00000+0  38208-3 0  9998","tle2":"2 55982  41.9997 155.0635 0007523  64.2914 295.8701 15.38183171183167"},{"id":"56185","name":"BRO-9","tle1":"1 56185U 23054H   26175.37906169  .07230581  24741-5  71881-3 0  9998","tle2":"2 56185  97.2846  94.7711 0013592 210.9283 149.1217 16.37917889180257"},{"id":"56192","name":"ION SCV-010","tle1":"1 56192U 23054Q   26176.22426189  .00005043  00000+0  19701-3 0  9995","tle2":"2 56192  97.3779  65.6231 0013075 168.4416 191.7125 15.26257791177428"},{"id":"56310","name":"TELEOS-2","tle1":"1 56310U 23057C   26175.95423817  .00000684  00000+0 -26894-6 0  9995","tle2":"2 56310   9.9868 147.6312 0000218 273.9451  86.0738 14.96398298173960"},{"id":"56744","name":"SNIPE 4","tle1":"1 56744U 23072B   26176.32302934  .00024230  00000+0  55754-3 0  9997","tle2":"2 56744  97.5249  22.5878 0003809 299.5275  60.5592 15.42630502171368"},{"id":"56745","name":"SNIPE 2","tle1":"1 56745U 23072C   26176.27730933  .00033447  00000+0  65715-3 0  9994","tle2":"2 56745  97.5243  25.6411 0003330 341.7088  18.4042 15.47229527171493"},{"id":"56749","name":"2023-072G","tle1":"1 56749U 23072G   26176.32277053  .00037246  00000+0  64114-3 0  9996","tle2":"2 56749  97.4900  24.5011 0001913 333.4138  26.7015 15.51000032171720"},{"id":"56934","name":"GEISAT PRECURSOR","tle1":"1 56934U 23084C   26176.30384539  .00008081  00000+0  24232-3 0  9993","tle2":"2 56934  97.6226 317.5249 0004322 323.9607  36.1344 15.34751621168778"},{"id":"56950","name":"BLACKJACK ACES-3","tle1":"1 56950U 23084U   26175.94588766  .00005095  00000+0  25015-3 0  9990","tle2":"2 56950  97.6215 311.1960 0001920  17.2769 342.8530 15.18536157168341"},{"id":"56955","name":"BLACKJACK ACES-2","tle1":"1 56955U 23084Z   26176.28135744  .00007128  00000+0  34822-3 0  9992","tle2":"2 56955  97.6211 311.6187 0000710 103.7186 256.4127 15.18567775168407"},{"id":"56956","name":"BLACKJACK ACES-1","tle1":"1 56956U 23084AA  26176.26924892  .00007633  00000+0  37286-3 0  9999","tle2":"2 56956  97.6199 311.3795 0001125 125.5504 234.5835 15.18543794118124"},{"id":"56957","name":"ION SCV-011","tle1":"1 56957U 23084AB  26176.24738687  .00005701  00000+0  20593-3 0  9990","tle2":"2 56957  98.1380   4.2741 0007423  19.9156 340.2370 15.28916861167042"},{"id":"56958","name":"GHOST-3","tle1":"1 56958U 23084AC  26175.98518694  .00018657  00000+0  35694-3 0  9997","tle2":"2 56958  97.6216 324.9766 0005745 261.7962  98.2636 15.48111022169226"},{"id":"56962","name":"TOMORROW-R2","tle1":"1 56962U 23084AG  26176.10320456  .02137942  25777-5  86188-3 0  9993","tle2":"2 56962  97.6024 341.6101 0010626 251.5043 108.5092 16.23393980170332"},{"id":"56964","name":"AFR-1","tle1":"1 56964U 23084AJ  26176.28414096  .00004915  00000+0  17924-3 0  9997","tle2":"2 56964  97.6278 313.1704 0009303 316.0152  44.0346 15.28616285168463"},{"id":"57166","name":"METEOR-M2 3","tle1":"1 57166U 23091A   26176.31915875 -.00000010  00000+0  14586-4 0  9990","tle2":"2 57166  98.6079 231.1311 0004749 135.4529 224.7033 14.24047374155672"},{"id":"57172","name":"UMKA 1 (RS40S)","tle1":"1 57172U 23091G   26176.25242583  .00007458  00000+0  33949-3 0  9994","tle2":"2 57172  97.5051 234.9186 0014329  92.7767 267.5108 15.20902926165233"},{"id":"57173","name":"2023-091H","tle1":"1 57173U 23091H   26176.29959201  .00014590  00000+0  52260-3 0  9993","tle2":"2 57173  97.5051 239.5574 0011189  88.5835 271.6686 15.28798666165549"},{"id":"57174","name":"2023-091J","tle1":"1 57174U 23091J   26176.25189994  .00003962  00000+0  22148-3 0  9997","tle2":"2 57174  97.5054 229.2333 0014776 117.7276 242.5457 15.13978383164857"},{"id":"57175","name":"CUBEBEL 2 (EU11S)","tle1":"1 57175U 23091K   26176.29766593  .00016521  00000+0  58154-3 0  9999","tle2":"2 57175  97.5054 239.5873 0011179  90.0628 270.1893 15.29340344165544"},{"id":"57176","name":"SITRO-AIS 5 (KATYS)","tle1":"1 57176U 23091L   26176.24766669  .00015551  00000+0  54260-3 0  9995","tle2":"2 57176  97.5062 240.2238 0012537  78.5151 281.7497 15.29625984165576"},{"id":"57177","name":"ZORKIY-2M 1","tle1":"1 57177U 23091M   26176.23833675  .00009019  00000+0  40857-3 0  9996","tle2":"2 57177  97.5093 235.1780 0014814  90.2799 270.0134 15.21000734165228"},{"id":"57178","name":"CUBESX-HSE 3 (RS42S)","tle1":"1 57178U 23091N   26176.27674558  .00016663  00000+0  55036-3 0  9992","tle2":"2 57178  97.5093 241.9664 0011646  69.5906 290.6585 15.31401475165668"}]